PROMETHEUS 2-3          
1 41855U 16067H   25222.55238137  .00055821  00000+0  86007-3 0  9994
2 41855  98.0601  82.5001 0004897  51.9544 308.2149 15.53996933480014
CORVUS BC2              
1 42846U 17042X   25222.42089341  .00004732  00000+0  35223-3 0  9995
2 42846  97.3780  32.0606 0014860  94.0623 266.2302 15.03306014440327
CORVUS BC1              
1 42847U 17042Y   25222.46159231  .00003404  00000+0  25293-3 0  9997
2 42847  97.3826  32.6859 0014726  73.5120 286.7723 15.03560222440350
MIRATA                  
1 43015U 17073C   25222.46991966  .00086954  00000+0  10450-2 0  9997
2 43015  97.5281 120.4104 0064595 214.7926 144.9098 15.58007984420412
MAKERSAT 0              
1 43016U 17073D   25222.63275007  .00013616  00000+0  52990-3 0  9999
2 43016  97.5091 100.2544 0140362 285.1234  73.4508 15.17369528419147
SIRION PATHFINDER-2     
1 43759U 18099B   25222.60135011  .00005020  00000+0  30905-3 0  9991
2 43759  97.4733 274.0453 0007923 295.8500  64.1912 15.10419903365671
CORVUS BC4              
1 43767U 18099K   25222.16595228  .00004468  00000+0  28753-3 0  9994
2 43767  97.4541 269.1476 0008695   3.2021 356.9262 15.08841702365441
SPACEBEE-7              
1 43816U 18099BL  25222.47631193  .00036705  00000+0  92720-3 0  9999
2 43816  97.4911 293.9925 0005085 239.6011 120.4732 15.39713118366311
SHIELDS 1               
1 43850U 18104B   25221.84403722  .00051349  00000+0  52525-3 0  9999
2 43850  85.0163 353.2879 0004554 259.0552 101.0201 15.64806508371029
DUCHIFAT-3              
1 44854U 19089C   25222.56901076  .00062053  00000+0  10003-2 0  9990
2 44854  36.9418 319.6207 0004884  98.1991 261.9321 15.51842369312630
M2 PATHFINDER           
1 45727U 20037E   25222.48099805  .00002262  00000+0  17489-3 0  9996
2 45727  97.8143  45.6073 0013286 116.7229 243.5357 15.02478056278804
NETSAT-4                
1 46504U 20068U   25222.50111165  .00013427  00000+0  44026-3 0  9993
2 46504  97.8490 203.8992 0006369   3.8101 356.3186 15.31744234268022
NETSAT-3                
1 46505U 20068V   25222.48885243  .00013614  00000+0  46749-3 0  9998
2 46505  97.8494 202.6799 0006679  16.9329 343.2132 15.30245035267973
NETSAT-1                
1 46506U 20068W   25222.47899092  .00010305  00000+0  41399-3 0  9995
2 46506  97.8525 200.0312 0007027  32.3028 327.8638 15.25132634267791
NETSAT-2                
1 46507U 20068X   25222.50521540  .00014963  00000+0  49424-3 0  9991
2 46507  97.8491 203.3568 0006010  36.6840 323.4810 15.31483539267966
WILDTRACKCUBE-SIMBA     
1 47941U 21022K   25222.60859865  .00036203  00000+0  67286-3 0  9997
2 47941  97.4152 128.6636 0011663  90.8225 269.4362 15.48747606242783
LEDSAT                  
1 49069U 21073D   25222.46386951  .00114574  00000+0  94648-3 0  9991
2 49069  97.3845 306.9573 0008945 204.5517 155.5320 15.69902716221113
GREENCUBE (IO-117)      
1 53109U 22080E   25220.51075504 -.00000003  00000+0  00000+0 0  9990
2 53109  70.1414  46.9685 0008601 358.0172   2.0452  6.42583774 71979
SITRO-AIS 5 (KATYS)     
1 57176U 23091L   25222.55926564  .00009550  00000+0  43564-3 0  9999
2 57176  97.5538 279.6324 0015325 113.2766 247.0084 15.20738028116997
SITRO-AIS 6 (CHIRKIN)   
1 57192U 23091AC  25222.61647245  .00009225  00000+0  42221-3 0  9998
2 57192  97.5537 279.6892 0015274 112.8136 247.4714 15.20635190117006
SITRO-AIS 8 (ANOKHIN)   
1 57193U 23091AD  25222.59612883  .00011102  00000+0  48526-3 0  9997
2 57193  97.5532 280.3103 0014609 112.4005 247.8780 15.22167152117049
SITRO-AIS 7 (FARTUSHNIY)
1 57194U 23091AE  25222.57649105  .00010473  00000+0  48035-3 0  9998
2 57194  97.5535 279.5779 0015018 113.6454 246.6360 15.20529492116999
SITRO-AIS 10 (BURDAEV)  
1 57199U 23091AK  25222.56857058  .00012651  00000+0  49792-3 0  9991
2 57199  97.5547 282.9437 0010492  97.5709 262.6721 15.25722171117208
SITRO-AIS 9 (SHCHUKIN)  
1 57201U 23091AM  25222.59422656  .00013179  00000+0  52166-3 0  9995
2 57201  97.5542 282.8617 0010464  97.6610 262.5816 15.25523423117200
SITRO-AIS 12 (SMIRENNIY)
1 57204U 23091AQ  25222.56805561  .00013134  00000+0  51670-3 0  9995
2 57204  97.5553 283.1449 0010314  92.2524 267.9895 15.25729486117215
SITRO-AIS 11 (SHEFFER)  
1 57208U 23091AU  25222.57811633  .00014204  00000+0  55486-3 0  9995
2 57208  97.5550 283.2614 0010196  92.2580 267.9825 15.25947035117227
VERONIKA                
1 58261U 23174F   25222.54519845  .01418187  13786-2  15532-2 0  9998
2 58261  97.4060 313.6072 0012544 258.1535 101.8342 16.09932678 98486
ROBUSTA-1E (ENSO)       
1 58470U 23185J   25222.51247963  .00080008  00000+0  88353-3 0  9998
2 58470  97.3688 299.8948 0006830 205.3420 154.7504 15.62778914 94682
SITRO-AIS 25            
1 59066U 24039R   25222.60419184  .00003073  00000+0  26071-3 0  9991
2 59066  95.3803  22.2288 0153526 332.0890  27.2158 14.89590772 78425
SITRO-AIS 26            
1 59067U 24039S   25222.56906209  .00003069  00000+0  26124-3 0  9990
2 59067  95.3803  22.1557 0153766 332.4716  26.8422 14.89439468 78413
SITRO-AIS 27            
1 59068U 24039T   25222.55045521  .00002823  00000+0  23893-3 0  9998
2 59068  95.3803  22.2887 0152992 331.7845  27.5149 14.89772809 78420
SITRO-AIS 28            
1 59071U 24039U   25222.60301196  .00003094  00000+0  26138-3 0  9997
2 59071  95.3806  22.3547 0152814 331.5125  27.7806 14.89811905 78437
GRBBETA                 
1 60237U 24128C   25222.34778874  .00004933  00000+0  36741-3 0  9998
2 60237  61.9892 224.1185 0055761  70.6468 290.0640 15.03068547 59489
OOV-CUBE (TUBSAT-30)    
1 60240U 24128F   25222.50901576  .00002655  00000+0  21901-3 0  9998
2 60240  61.9936 227.2188 0056419  67.8506 292.8559 15.00536315 59457
ROBUSTA-3A (MEDITERRAN*)
1 60243U 24128J   25222.49772814  .00006097  00000+0  42399-3 0  9998
2 60243  61.9861 221.9696 0055005  64.6617 296.0158 15.05353455 59548
LASARSAT                
1 62391U 24247Q   25222.60783494  .00017785  00000+0  65697-3 0  9997
2 62391  44.9814 181.6956 0007236  43.6503 316.4951 15.27532368 35546
CROCUBE                 
1 62394U 24247T   25222.59270469  .00018150  00000+0  66467-3 0  9994
2 62394  44.9771 181.5497 0008592  52.4978 307.6685 15.27795984 35541
